{
  "type": "FeatureCollection",
  "features": [
    {
      "type": "Feature",
      "properties": {
        "norad_id": 66767,
        "name": "TRANSPORTER-15 DF",
        "group": "last-30-days",
        "lat": 5.8316360694088765,
        "lon": -113.63165700014542,
        "alt_km": 513.174796802773,
        "timestamp": "2025-12-19T22:41:51.096802+00:00",
        "meta_object_name": "TRANSPORTER-15 DF",
        "meta_object_id": "2025-276DF",
        "meta_epoch": "2025-12-19T15:36:24.283584",
        "meta_mean_motion": 15.18267281,
        "meta_eccentricity": 0.0002061,
        "meta_inclination": 97.4382,
        "meta_ra_of_asc_node": 65.3133,
        "meta_arg_of_pericenter": 92.7355,
        "meta_mean_anomaly": 267.4115,
        "meta_ephemeris_type": 0,
        "meta_classification_type": "U",
        "meta_norad_cat_id": 66767,
        "meta_element_set_no": 999,
        "meta_rev_at_epoch": 317,
        "meta_bstar": 0.00015018,
        "meta_mean_motion_dot": 3.009e-05,
        "meta_mean_motion_ddot": 0,
        "tle_line1": "1 66767U 25276DF  25353.65028106  .00003009  00000+0  15018-3 0  9999",
        "tle_line2": "2 66767  97.4382  65.3133 0002061  92.7355 267.4115 15.18267281  3176"
      },
      "geometry": {
        "type": "Point",
        "coordinates": [
          -113.63165700014542,
          5.8316360694088765
        ]
      }
    },
    {
      "type": "Feature",
      "properties": {
        "norad_id": 66768,
        "name": "TRANSPORTER-15 DG",
        "group": "last-30-days",
        "lat": -3.495752567628854,
        "lon": -114.85250643026264,
        "alt_km": 514.3332222531226,
        "timestamp": "2025-12-19T22:41:51.096814+00:00",
        "meta_object_name": "TRANSPORTER-15 DG",
        "meta_object_id": "2025-276DG",
        "meta_epoch": "2025-12-19T15:33:58.989024",
        "meta_mean_motion": 15.18467388,
        "meta_eccentricity": 0.0002273,
        "meta_inclination": 97.4368,
        "meta_ra_of_asc_node": 65.3125,
        "meta_arg_of_pericenter": 81.9212,
        "meta_mean_anomaly": 278.228,
        "meta_ephemeris_type": 0,
        "meta_classification_type": "U",
        "meta_norad_cat_id": 66768,
        "meta_element_set_no": 999,
        "meta_rev_at_epoch": 317,
        "meta_bstar": 0.00025792,
        "meta_mean_motion_dot": 5.248e-05,
        "meta_mean_motion_ddot": 0,
        "tle_line1": "1 66768U 25276DG  25353.64859941  .00005248  00000+0  25792-3 0  9995",
        "tle_line2": "2 66768  97.4368  65.3125 0002273  81.9212 278.2280 15.18467388  3172"
      },
      "geometry": {
        "type": "Point",
        "coordinates": [
          -114.85250643026264,
          -3.495752567628854
        ]
      }
    },
    {
      "type": "Feature",
      "properties": {
        "norad_id": 66769,
        "name": "TRANSPORTER-15 DH",
        "group": "last-30-days",
        "lat": 0.20566236168831545,
        "lon": -114.35468388117361,
        "alt_km": 513.1980406643315,
        "timestamp": "2025-12-19T22:41:51.096825+00:00",
        "meta_object_name": "TRANSPORTER-15 DH",
        "meta_object_id": "2025-276DH",
        "meta_epoch": "2025-12-19T15:34:56.375904",
        "meta_mean_motion": 15.18367197,
        "meta_eccentricity": 0.0002557,
        "meta_inclination": 97.443,
        "meta_ra_of_asc_node": 65.3267,
        "meta_arg_of_pericenter": 111.6402,
        "meta_mean_anomaly": 248.5104,
        "meta_ephemeris_type": 0,
        "meta_classification_type": "U",
        "meta_norad_cat_id": 66769,
        "meta_element_set_no": 999,
        "meta_rev_at_epoch": 317,
        "meta_bstar": 0.00018671,
        "meta_mean_motion_dot": 3.769e-05,
        "meta_mean_motion_ddot": 0,
        "tle_line1": "1 66769U 25276DH  25353.64926361  .00003769  00000+0  18671-3 0  9991",
        "tle_line2": "2 66769  97.4430  65.3267 0002557 111.6402 248.5104 15.18367197  3179"
      },
      "geometry": {
        "type": "Point",
        "coordinates": [
          -114.35468388117361,
          0.20566236168831545
        ]
      }
    },
    {
      "type": "Feature",
      "properties": {
        "norad_id": 66770,
        "name": "TRANSPORTER-15 DJ",
        "group": "last-30-days",
        "lat": -1.6991037068990886,
        "lon": -114.59449084305196,
        "alt_km": 512.8368015669539,
        "timestamp": "2025-12-19T22:41:51.096837+00:00",
        "meta_object_name": "TRANSPORTER-15 DJ",
        "meta_object_id": "2025-276DJ",
        "meta_epoch": "2025-12-19T15:34:25.963968",
        "meta_mean_motion": 15.18367258,
        "meta_eccentricity": 0.0002954,
        "meta_inclination": 97.4459,
        "meta_ra_of_asc_node": 65.3356,
        "meta_arg_of_pericenter": 130.1383,
        "meta_mean_anomaly": 230.011,
        "meta_ephemeris_type": 0,
        "meta_classification_type": "U",
        "meta_norad_cat_id": 66770,
        "meta_element_set_no": 999,
        "meta_rev_at_epoch": 317,
        "meta_bstar": 0.00010651,
        "meta_mean_motion_dot": 2.121e-05,
        "meta_mean_motion_ddot": 0,
        "tle_line1": "1 66770U 25276DJ  25353.64891162  .00002121  00000+0  10651-3 0  9994",
        "tle_line2": "2 66770  97.4459  65.3356 0002954 130.1383 230.0110 15.18367258  3177"
      },
      "geometry": {
        "type": "Point",
        "coordinates": [
          -114.59449084305196,
          -1.6991037068990886
        ]
      }
    },
    {
      "type": "Feature",
      "properties": {
        "norad_id": 66771,
        "name": "TRANSPORTER-15 DK",
        "group": "last-30-days",
        "lat": -3.2934457959565666,
        "lon": -114.80480537069826,
        "alt_km": 513.2229190685648,
        "timestamp": "2025-12-19T22:41:51.096847+00:00",
        "meta_object_name": "TRANSPORTER-15 DK",
        "meta_object_id": "2025-276DK",
        "meta_epoch": "2025-12-19T15:34:01.591392",
        "meta_mean_motion": 15.18425195,
        "meta_eccentricity": 0.0002836,
        "meta_inclination": 97.4455,
        "meta_ra_of_asc_node": 65.3339,
        "meta_arg_of_pericenter": 120.8335,
        "meta_mean_anomaly": 239.3179,
        "meta_ephemeris_type": 0,
        "meta_classification_type": "U",
        "meta_norad_cat_id": 66771,
        "meta_element_set_no": 999,
        "meta_rev_at_epoch": 317,
        "meta_bstar": 0.00019786,
        "meta_mean_motion_dot": 4.005e-05,
        "meta_mean_motion_ddot": 0,
        "tle_line1": "1 66771U 25276DK  25353.64862953  .00004005  00000+0  19786-3 0  9992",
        "tle_line2": "2 66771  97.4455  65.3339 0002836 120.8335 239.3179 15.18425195  3179"
      },
      "geometry": {
        "type": "Point",
        "coordinates": [
          -114.80480537069826,
          -3.2934457959565666
        ]
      }
    },
    {
      "type": "Feature",
      "properties": {
        "norad_id": 66772,
        "name": "TRANSPORTER-15 DL",
        "group": "last-30-days",
        "lat": -13.673540580772238,
        "lon": -116.19495562185652,
        "alt_km": 514.5324741875838,
        "timestamp": "2025-12-19T22:41:51.096857+00:00",
        "meta_object_name": "TRANSPORTER-15 DL",
        "meta_object_id": "2025-276DL",
        "meta_epoch": "2025-12-19T15:31:19.536096",
        "meta_mean_motion": 15.18627675,
        "meta_eccentricity": 0.0002887,
        "meta_inclination": 97.4448,
        "meta_ra_of_asc_node": 65.3337,
        "meta_arg_of_pericenter": 108.2208,
        "meta_mean_anomaly": 251.934,
        "meta_ephemeris_type": 0,
        "meta_classification_type": "U",
        "meta_norad_cat_id": 66772,
        "meta_element_set_no": 999,
        "meta_rev_at_epoch": 317,
        "meta_bstar": 0.00026731,
        "meta_mean_motion_dot": 5.467e-05,
        "meta_mean_motion_ddot": 0,
        "tle_line1": "1 66772U 25276DL  25353.64675389  .00005467  00000+0  26731-3 0  9999",
        "tle_line2": "2 66772  97.4448  65.3337 0002887 108.2208 251.9340 15.18627675  3172"
      },
      "geometry": {
        "type": "Point",
        "coordinates": [
          -116.19495562185652,
          -13.673540580772238
        ]
      }
    },
    {
      "type": "Feature",
      "properties": {
        "norad_id": 66773,
        "name": "TRANSPORTER-15 DM",
        "group": "last-30-days",
        "lat": -8.84136055260245,
        "lon": -115.54012872769505,
        "alt_km": 514.2874773845087,
        "timestamp": "2025-12-19T22:41:51.096867+00:00",
        "meta_object_name": "TRANSPORTER-15 DM",
        "meta_object_id": "2025-276DM",
        "meta_epoch": "2025-12-19T15:32:34.305792",
        "meta_mean_motion": 15.18487387,
        "meta_eccentricity": 0.0003023,
        "meta_inclination": 97.4442,
        "meta_ra_of_asc_node": 65.3318,
        "meta_arg_of_pericenter": 107.5089,
        "meta_mean_anomaly": 252.6476,
        "meta_ephemeris_type": 0,
        "meta_classification_type": "U",
        "meta_norad_cat_id": 66773,
        "meta_element_set_no": 999,
        "meta_rev_at_epoch": 317,
        "meta_bstar": 0.00018223,
        "meta_mean_motion_dot": 3.69e-05,
        "meta_mean_motion_ddot": 0,
        "tle_line1": "1 66773U 25276DM  25353.64761928  .00003690  00000+0  18223-3 0  9998",
        "tle_line2": "2 66773  97.4442  65.3318 0003023 107.5089 252.6476 15.18487387  3170"
      },
      "geometry": {
        "type": "Point",
        "coordinates": [
          -115.54012872769505,
          -8.84136055260245
        ]
      }
    }
  ]
}